NORAD_CAT_ID,OBJECT_NAME,OBJECT_TYPE,EPOCH,MEAN_MOTION,ECCENTRICITY,INCLINATION,RA_OF_ASC_NODE,ARG_OF_PERICENTER,MEAN_ANOMALY,BSTAR,MEAN_MOTION_DOT,MEAN_MOTION_DDOT,TLE_LINE0,TLE_LINE1,TLE_LINE2,SEMIMAJOR_AXIS,PERIOD,APOGEE,PERIGEE,DECAYED
51739.0,STARLINK-3516,PAYLOAD,2024-02-19 19:18:23,15.08838504,0.0001967,53.2177,81.0002,80.866,279.2554,8.7517e-05,1.105e-05,0.0,0 STARLINK-3516,1 51739U 22016AB  24050.80444314  .00001105  00000-0  87517-4 0  9994,2 51739  53.2177  81.0002 0001967  80.8660 279.2554 15.08838504111621,6917.885,95.438,541.111,538.389,0.0
51739.0,STARLINK-3516,PAYLOAD,2024-02-20 08:01:29,15.08837737,0.0001774,53.2159,78.6193,84.7721,275.3474,0.00010519,1.386e-05,0.0,0 STARLINK-3516,1 51739U 22016AB  24051.33436457  .00001386  00000-0  10519-3 0  9990,2 51739  53.2159  78.6193 0001774  84.7721 275.3474 15.08837737110580,6917.887,95.438,540.98,538.525,0.0
51739.0,STARLINK-3516,PAYLOAD,2024-02-20 19:09:10,15.08844236,0.0001717,53.2159,76.5375,87.7059,272.413,0.00013878,1.922e-05,0.0,0 STARLINK-3516,1 51739U 22016AB  24051.79804184  .00001922  00000-0  13878-3 0  9993,2 51739  53.2159  76.5375 0001717  87.7059 272.4130 15.08844236110650,6917.867,95.437,540.92,538.545,0.0
51739.0,STARLINK-3516,PAYLOAD,2024-02-21 01:30:43,15.08842529,0.0001744,53.2158,75.348,85.149,274.9701,0.00017795,2.545e-05,0.0,0 STARLINK-3516,1 51739U 22016AB  24052.06300327  .00002545  00000-0  17795-3 0  9998,2 51739  53.2158  75.3480 0001744  85.1490 274.9701 15.08842529111817,6917.873,95.437,540.944,538.531,0.0
51739.0,STARLINK-3516,PAYLOAD,2024-02-21 07:52:15,15.08851355,0.0001763,53.2161,74.1577,90.7488,269.3706,0.00025473,3.77e-05,0.0,0 STARLINK-3516,1 51739U 22016AB  24052.32795836  .00003770  00000-0  25473-3 0  9993,2 51739  53.2161  74.1577 0001763  90.7488 269.3706 15.08851355110735,6917.846,95.437,540.93,538.491,0.0
51739.0,STARLINK-3516,PAYLOAD,2024-02-22 04:32:16,15.08838518,0.0001771,53.2162,70.2919,91.2065,268.913,8.9318e-05,1.134e-05,0.0,0 STARLINK-3516,1 51739U 22016AB  24053.18908422  .00001134  00000-0  89318-4 0  9996,2 51739  53.2162  70.2919 0001771  91.2065 268.9130 15.08838518111989,6917.885,95.438,540.975,538.525,0.0
51739.0,STARLINK-3516,PAYLOAD,2024-02-22 10:53:49,15.08843428,0.0001753,53.2171,69.1002,97.4004,262.7187,6.0963e-05,6.82e-06,0.0,0 STARLINK-3516,1 51739U 22016AB  24053.45404087  .00000682  00000-0  60963-4 0  9996,2 51739  53.2171  69.1002 0001753  97.4004 262.7187 15.08843428110901,6917.87,95.437,540.948,538.522,0.0
51739.0,STARLINK-3516,PAYLOAD,2024-02-23 07:33:49,15.08846579,0.0001728,53.2175,65.2342,97.7606,262.3582,4.1322e-05,3.7e-06,0.0,0 STARLINK-3516,1 51739U 22016AB  24054.31515875  .00000370  00000-0  41322-4 0  9992,2 51739  53.2175  65.2342 0001728  97.7606 262.3582 15.08846579112156,6917.86,95.437,540.921,538.53,0.0
51739.0,STARLINK-3516,PAYLOAD,2024-02-23 17:06:08,15.08845958,0.0001628,53.2175,63.4508,94.8433,265.2745,1.3636e-05,-7.1e-07,0.0,0 STARLINK-3516,1 51739U 22016AB  24054.71259907 -.00000071  00000-0  13636-4 0  9993,2 51739  53.2175  63.4508 0001628  94.8433 265.2745 15.08845958111090,6917.862,95.437,540.853,538.601,0.0
51739.0,STARLINK-3516,PAYLOAD,2024-02-24 04:13:51,15.08836232,0.0001758,53.2188,61.3752,107.1212,252.9973,1.8623e-05,8e-08,0.0,0 STARLINK-3516,1 51739U 22016AB  24055.17628738  .00000008  00000-0  18623-4 0  9996,2 51739  53.2188  61.3752 0001758 107.1212 252.9973 15.08836232112282,6917.892,95.438,540.973,538.541,0.0
51739.0,STARLINK-3516,PAYLOAD,2024-02-24 07:24:37,15.08837731,0.0001925,53.2189,60.78,115.4849,244.6342,2.3041e-05,7.9e-07,0.0,0 STARLINK-3516,1 51739U 22016AB  24055.30876639  .00000079  00000-0  23041-4 0  9994,2 51739  53.2189  60.7800 0001925 115.4849 244.6342 15.08837731111185,6917.887,95.438,541.084,538.421,0.0
51739.0,STARLINK-3516,PAYLOAD,2024-02-24 16:56:56,15.08835919,0.0001769,53.2189,58.9959,102.6636,257.4554,1.0096e-05,-1.27e-06,0.0,0 STARLINK-3516,1 51739U 22016AB  24055.70620978 -.00000127  00000-0  10096-4 0  9992,2 51739  53.2189  58.9959 0001769 102.6636 257.4554 15.08835919111247,6917.893,95.438,540.982,538.534,0.0
51739.0,STARLINK-3516,PAYLOAD,2024-02-25 05:40:01,15.08844237,0.0001745,53.2187,56.6166,104.3694,255.7492,6.4142e-05,7.33e-06,0.0,0 STARLINK-3516,1 51739U 22016AB  24056.23612458  .00000733  00000-0  64142-4 0  9998,2 51739  53.2187  56.6166 0001745 104.3694 255.7492 15.08844237112445,6917.867,95.437,540.94,538.525,0.0
51739.0,STARLINK-3516,PAYLOAD,2024-02-25 07:15:25,15.08790443,0.000215,53.2188,56.3196,106.4528,253.67,0.00086752,0.00013527,0.0,0 STARLINK-3516,1 51739U 22016AB  24056.30237767  .00013527  00000-0  86752-3 0  9997,2 51739  53.2188  56.3196 0002150 106.4528 253.6700 15.08790443112455,6918.032,95.441,541.384,538.409,0.0
51739.0,STARLINK-3516,PAYLOAD,2024-02-25 16:47:43,15.08843396,0.0001453,53.2174,54.5325,95.4978,264.618,0.00010041,1.311e-05,0.0,0 STARLINK-3516,1 51739U 22016AB  24056.69980326  .00001311  00000-0  10041-3 0  9991,2 51739  53.2174  54.5325 0001453  95.4978 264.6180 15.08843396112512,6917.87,95.437,540.74,538.73,0.0
51739.0,STARLINK-3516,PAYLOAD,2024-02-26 07:06:11,15.08842238,0.0001601,53.2179,51.8573,94.4087,265.7088,0.00012281,1.667e-05,0.0,0 STARLINK-3516,1 51739U 22016AB  24057.29596547  .00001667  00000-0  12281-3 0  9998,2 51739  53.2179  51.8573 0001601  94.4087 265.7088 15.08842238111485,6917.874,95.437,540.846,538.631,0.0
51739.0,STARLINK-3516,PAYLOAD,2024-02-26 23:00:03,15.08838528,0.0001786,53.2189,48.8853,81.0321,279.0873,5.9601e-05,6.61e-06,0.0,0 STARLINK-3516,1 51739U 22016AB  24057.95837218  .00000661  00000-0  59601-4 0  9995,2 51739  53.2189  48.8853 0001786  81.0321 279.0873 15.08838528111588,6917.885,95.438,540.985,538.514,0.0
51739.0,STARLINK-3516,PAYLOAD,2024-02-27 03:46:12,15.08837245,0.0001741,53.2187,47.9907,89.7873,270.3318,4.4713e-05,4.24e-06,0.0,0 STARLINK-3516,1 51739U 22016AB  24058.15709264  .00000424  00000-0  44713-4 0  9992,2 51739  53.2187  47.9907 0001741  89.7873 270.3318 15.08837245112735,6917.889,95.438,540.958,538.549,0.0
51739.0,STARLINK-3516,PAYLOAD,2024-02-27 06:56:59,15.08841126,0.0001811,53.2189,47.3973,77.8916,282.2279,1.1683e-05,-1.02e-06,0.0,0 STARLINK-3516,1 51739U 22016AB  24058.28957204 -.00000102  00000-0  11683-4 0  9999,2 51739  53.2189  47.3973 0001811  77.8916 282.2279 15.08841126111637,6917.877,95.437,540.995,538.489,0.0
51739.0,STARLINK-3516,PAYLOAD,2024-02-27 16:29:17,15.08841568,0.0001636,53.2184,45.6123,85.6768,274.4411,4.7754e-05,4.72e-06,0.0,0 STARLINK-3516,1 51739U 22016AB  24058.68700947  .00000472  00000-0  47754-4 0  9990,2 51739  53.2184  45.6123 0001636  85.6768 274.4411 15.08841568111694,6917.876,95.437,540.872,538.609,0.0
51739.0,STARLINK-3516,PAYLOAD,2024-02-28 03:36:59,15.08850302,0.0001771,53.2184,43.5305,81.0675,279.0517,-5.2903e-05,-1.13e-05,0.0,0 STARLINK-3516,1 51739U 22016AB  24059.15068583 -.00001130  00000-0 -52903-4 0  9992,2 51739  53.2184  43.5305 0001771  81.0675 279.0517 15.08850302112886,6917.849,95.437,540.939,538.489,0.0
51739.0,STARLINK-3516,PAYLOAD,2024-02-28 05:12:22,15.08849284,0.000145,53.2173,43.2315,90.9663,269.1495,-7.9955e-07,-3.01e-06,0.0,0 STARLINK-3516,1 51739U 22016AB  24059.21692525 -.00000301  00000-0 -79955-6 0  9995,2 51739  53.2173  43.2315 0001450  90.9663 269.1495 15.08849284111771,6917.852,95.437,540.72,538.714,0.0
51739.0,STARLINK-3516,PAYLOAD,2024-02-28 16:20:04,15.0884168,0.0001467,53.2174,41.1498,89.4748,270.6413,0.00010628,1.404e-05,0.0,0 STARLINK-3516,1 51739U 22016AB  24059.68060596  .00001404  00000-0  10628-3 0  9995,2 51739  53.2174  41.1498 0001467  89.4748 270.6413 15.08841680111843,6917.875,95.437,540.755,538.725,0.0
51739.0,STARLINK-3516,PAYLOAD,2024-02-29 05:03:09,15.08840997,0.0001523,53.2178,38.7689,105.363,254.753,4.4894e-05,4.27e-06,0.0,0 STARLINK-3516,1 51739U 22016AB  24060.21052822  .00000427  00000-0  44894-4 0  9996,2 51739  53.2178  38.7689 0001523 105.3630 254.7530 15.08840997113049,6917.877,95.437,540.796,538.689,0.0
51739.0,STARLINK-3516,PAYLOAD,2024-02-29 08:13:55,15.08839748,0.000156,53.218,38.1737,107.2322,252.8841,0.00010635,1.405e-05,0.0,0 STARLINK-3516,1 51739U 22016AB  24060.34300759  .00001405  00000-0  10635-3 0  9997,2 51739  53.2180  38.1737 0001560 107.2322 252.8841 15.08839748111943,6917.881,95.438,540.825,538.667,0.0
51739.0,STARLINK-3516,PAYLOAD,2024-02-29 22:32:24,15.0882857,0.0001596,53.2187,35.4964,106.771,253.3457,9.911e-05,1.289e-05,0.0,0 STARLINK-3516,1 51739U 22016AB  24060.93917513  .00001289  00000-0  99110-4 0  9990,2 51739  53.2187  35.4964 0001596 106.7710 253.3457 15.08828570112037,6917.915,95.438,540.884,538.676,0.0
51739.0,STARLINK-3516,PAYLOAD,2024-03-01 08:04:43,15.08840138,0.0001597,53.2182,33.7139,96.2781,263.8393,4.8771e-05,4.88e-06,0.0,0 STARLINK-3516,1 51739U 22016AB  24061.33661038  .00000488  00000-0  48771-4 0  9990,2 51739  53.2182  33.7139 0001597  96.2781 263.8393 15.08840138112094,6917.88,95.438,540.85,538.64,0.0
51739.0,STARLINK-3516,PAYLOAD,2024-03-02 03:09:20,15.08841971,0.0001518,53.2183,30.1457,95.0784,265.0381,7.8136e-05,9.56e-06,0.0,0 STARLINK-3516,1 51739U 22016AB  24062.13148831  .00000956  00000-0  78136-4 0  9998,2 51739  53.2183  30.1457 0001518  95.0784 265.0381 15.08841971112213,6917.874,95.437,540.789,538.689,0.0
51739.0,STARLINK-3516,PAYLOAD,2024-03-03 04:35:31,15.08838542,0.0001388,53.2194,25.3906,84.8144,275.3006,5.6685e-05,6.14e-06,0.0,0 STARLINK-3516,1 51739U 22016AB  24063.19133298  .00000614  00000-0  56685-4 0  9992,2 51739  53.2194  25.3906 0001388  84.8144 275.3006 15.08838542113490,6917.885,95.438,540.71,538.79,0.0
51739.0,STARLINK-3516,PAYLOAD,2024-03-03 20:29:23,15.08834693,0.0001536,53.22,22.4188,90.2429,269.8739,2.514e-05,1.12e-06,0.0,0 STARLINK-3516,1 51739U 22016AB  24063.85373870  .00000112  00000-0  25140-4 0  9992,2 51739  53.2200  22.4188 0001536  90.2429 269.8739 15.08834693112471,6917.897,95.438,540.824,538.699,0.0
